0 FENGYUN 1C DEB
1 30439U 99025AFA 13281.46673726  .00000082  00000-0  79261-4 0   406
2 30439 099.1006 286.7195 0041262 178.9625 328.6473 14.04526129342991
0 FENGYUN 1C DEB
1 30439U 99025AFA 13283.80389478  .00000035  00000-0  49601-4 0   418
2 30439 099.1001 289.0618 0041389 172.4682 266.0145 14.04528521343321
0 FENGYUN 1C DEB
1 30439U 99025AFA 13286.00765373 -.00000002  00000-0  26952-4 0   425
2 30439 099.0996 291.2706 0041498 166.4186 248.8175 14.04529099343635
0 FENGYUN 1C DEB
1 30439U 99025AFA 13288.86980447  .00000098  00000-0  88849-4 0   430
2 30439 099.0992 294.1388 0041616 158.6390 320.5631 14.04529822344035
0 FENGYUN 1C DEB
1 30439U 99025AFA 13290.99407038  .00000184  00000-0  14248-3 0   445
2 30439 099.0992 296.2674 0041653 152.9971 261.2583 14.04530258344334
0 FENGYUN 1C DEB
1 30439U 99025AFA 13293.57157646  .00000438  00000-0  30004-3 0   450
2 30439 099.0995 298.8498 0041684 146.0812 333.6997 14.04530452344699
